{"type": "FeatureCollection", "features": [ {"type": "Feature", "properties": {"norad_id": 66638, "name": "STARLINK-35972", "group": "last-30-days", "lat": -15.82183107892337, "lon": 18.4266081409256, "alt_km": 422.21976576655834, "timestamp": "2025-12-12T22:42:11.306914+00:00", "meta": {"OBJECT_NAME": "STARLINK-35972", "OBJECT_ID": "2025-271X", "EPOCH": "2025-12-12T06:00:00.999648", "MEAN_MOTION": 15.51870885, "ECCENTRICITY": 9.453e-05, "INCLINATION": 53.1599, "RA_OF_ASC_NODE": 189.4944, "ARG_OF_PERICENTER": 87.1295, "MEAN_ANOMALY": 185.8307, "EPHEMERIS_TYPE": 0, "CLASSIFICATION_TYPE": "U", "NORAD_CAT_ID": 66638, "ELEMENT_SET_NO": 999, "REV_AT_EPOCH": 416, "BSTAR": -0.033668718, "MEAN_MOTION_DOT": -0.01818397, "MEAN_MOTION_DDOT": 0}, "tle": {"line1": "1 66638U 25271X   25346.25001157 -.01818397  00000+0 -33669-1 0  9993", "line2": "2 66638  53.1599 189.4944 0000945  87.1295 185.8307 15.51870885  4163"}}, "geometry": {"type": "Point", "coordinates": [18.4266081409256, -15.82183107892337]}}, {"type": "Feature", "properties": {"norad_id": 66639, "name": "STARLINK-35908", "group": "last-30-days", "lat": -17.315201502614094, "lon": 19.67249999679326, "alt_km": 422.3755561722037, "timestamp": "2025-12-12T22:42:11.306924+00:00", "meta": {"OBJECT_NAME": "STARLINK-35908", "OBJECT_ID": "2025-271Y", "EPOCH": "2025-12-12T06:00:00.999648", "MEAN_MOTION": 15.51870274, "ECCENTRICITY": 9.663e-05, "INCLINATION": 53.1598, "RA_OF_ASC_NODE": 189.4899, "ARG_OF_PERICENTER": 88.5584, "MEAN_ANOMALY": 186.3193, "EPHEMERIS_TYPE": 0, "CLASSIFICATION_TYPE": "U", "NORAD_CAT_ID": 66639, "ELEMENT_SET_NO": 999, "REV_AT_EPOCH": 416, "BSTAR": -0.033673927, "MEAN_MOTION_DOT": -0.01818623, "MEAN_MOTION_DDOT": 0}, "tle": {"line1": "1 66639U 25271Y   25346.25001157 -.01818623  00000+0 -33674-1 0  9992", "line2": "2 66639  53.1598 189.4899 0000966  88.5584 186.3193 15.51870274  4162"}}, "geometry": {"type": "Point", "coordinates": [19.67249999679326, -17.315201502614094]}}, {"type": "Feature", "properties": {"norad_id": 66640, "name": "STARLINK-35921", "group": "last-30-days", "lat": -18.758918217415413, "lon": 20.90346827172379, "alt_km": 422.8443026058094, "timestamp": "2025-12-12T22:42:11.306935+00:00", "meta": {"OBJECT_NAME": "STARLINK-35921", "OBJECT_ID": "2025-271Z", "EPOCH": "2025-12-12T06:00:00.999648", "MEAN_MOTION": 15.51878472, "ECCENTRICITY": 0.00011721, "INCLINATION": 53.1596, "RA_OF_ASC_NODE": 189.486, "ARG_OF_PERICENTER": 83.8702, "MEAN_ANOMALY": 192.9243, "EPHEMERIS_TYPE": 0, "CLASSIFICATION_TYPE": "U", "NORAD_CAT_ID": 66640, "ELEMENT_SET_NO": 999, "REV_AT_EPOCH": 416, "BSTAR": -0.034435637, "MEAN_MOTION_DOT": -0.01855575, "MEAN_MOTION_DDOT": 0}, "tle": {"line1": "1 66640U 25271Z   25346.25001157 -.01855575  00000+0 -34436-1 0  9998", "line2": "2 66640  53.1596 189.4860 0001172  83.8702 192.9243 15.51878472  4167"}}, "geometry": {"type": "Point", "coordinates": [20.90346827172379, -18.758918217415413]}}, {"type": "Feature", "properties": {"norad_id": 66641, "name": "STARLINK-35923", "group": "last-30-days", "lat": -24.60725395506409, "lon": 26.217334873325427, "alt_km": 423.37104686360544, "timestamp": "2025-12-12T22:42:11.306949+00:00", "meta": {"OBJECT_NAME": "STARLINK-35923", "OBJECT_ID": "2025-271AA", "EPOCH": "2025-12-12T06:00:00.999648", "MEAN_MOTION": 15.51882027, "ECCENTRICITY": 0.00012424, "INCLINATION": 53.1592, "RA_OF_ASC_NODE": 189.469, "ARG_OF_PERICENTER": 93.4835, "MEAN_ANOMALY": 190.973, "EPHEMERIS_TYPE": 0, "CLASSIFICATION_TYPE": "U", "NORAD_CAT_ID": 66641, "ELEMENT_SET_NO": 999, "REV_AT_EPOCH": 416, "BSTAR": -0.03446881, "MEAN_MOTION_DOT": -0.01857406, "MEAN_MOTION_DDOT": 0}, "tle": {"line1": "1 66641U 25271AA  25346.25001157 -.01857406  00000+0 -34469-1 0  9990", "line2": "2 66641  53.1592 189.4690 0001242  93.4835 190.9730 15.51882027  4167"}}, "geometry": {"type": "Point", "coordinates": [26.217334873325427, -24.60725395506409]}}, {"type": "Feature", "properties": {"norad_id": 66642, "name": "STARLINK-35926", "group": "last-30-days", "lat": -23.21378043406443, "lon": 24.896397082435413, "alt_km": 422.89399580419195, "timestamp": "2025-12-12T22:42:11.306959+00:00", "meta": {"OBJECT_NAME": "STARLINK-35926", "OBJECT_ID": "2025-271AB", "EPOCH": "2025-12-12T06:00:00.999648", "MEAN_MOTION": 15.51872664, "ECCENTRICITY": 9.604e-05, "INCLINATION": 53.1591, "RA_OF_ASC_NODE": 189.4738, "ARG_OF_PERICENTER": 93.0733, "MEAN_ANOMALY": 189.4695, "EPHEMERIS_TYPE": 0, "CLASSIFICATION_TYPE": "U", "NORAD_CAT_ID": 66642, "ELEMENT_SET_NO": 999, "REV_AT_EPOCH": 392, "BSTAR": -0.03356563, "MEAN_MOTION_DOT": -0.01813575, "MEAN_MOTION_DDOT": 0}, "tle": {"line1": "1 66642U 25271AB  25346.25001157 -.01813575  00000+0 -33566-1 0  9997", "line2": "2 66642  53.1591 189.4738 0000960  93.0733 189.4695 15.51872664  3921"}}, "geometry": {"type": "Point", "coordinates": [24.896397082435413, -23.21378043406443]}}, {"type": "Feature", "properties": {"norad_id": 66643, "name": "STARLINK-35918", "group": "last-30-days", "lat": -20.22847882763409, "lon": 22.185806229091174, "alt_km": 423.0303051710698, "timestamp": "2025-12-12T22:42:11.306969+00:00", "meta": {"OBJECT_NAME": "STARLINK-35918", "OBJECT_ID": "2025-271AC", "EPOCH": "2025-12-12T06:00:00.999648", "MEAN_MOTION": 15.51879097, "ECCENTRICITY": 0.00012029, "INCLINATION": 53.1594, "RA_OF_ASC_NODE": 189.4821, "ARG_OF_PERICENTER": 84.917, "MEAN_ANOMALY": 193.796, "EPHEMERIS_TYPE": 0, "CLASSIFICATION_TYPE": "U", "NORAD_CAT_ID": 66643, "ELEMENT_SET_NO": 999, "REV_AT_EPOCH": 416, "BSTAR": -0.034574628, "MEAN_MOTION_DOT": -0.01862243, "MEAN_MOTION_DDOT": 0}, "tle": {"line1": "1 66643U 25271AC  25346.25001157 -.01862243  00000+0 -34575-1 0  9995", "line2": "2 66643  53.1594 189.4821 0001202  84.9170 193.7960 15.51879097  4169"}}, "geometry": {"type": "Point", "coordinates": [22.185806229091174, -20.22847882763409]}}, {"type": "Feature", "properties": {"norad_id": 66644, "name": "STARLINK-35938", "group": "last-30-days", "lat": -21.747523771300123, "lon": 23.545893642132594, "alt_km": 422.9509436606095, "timestamp": "2025-12-12T22:42:11.306979+00:00", "meta": {"OBJECT_NAME": "STARLINK-35938", "OBJECT_ID": "2025-271AD", "EPOCH": "2025-12-12T06:00:00.999648", "MEAN_MOTION": 15.51870179, "ECCENTRICITY": 0.00010957, "INCLINATION": 53.1597, "RA_OF_ASC_NODE": 189.4782, "ARG_OF_PERICENTER": 86.2603, "MEAN_ANOMALY": 194.3679, "EPHEMERIS_TYPE": 0, "CLASSIFICATION_TYPE": "U", "NORAD_CAT_ID": 66644, "ELEMENT_SET_NO": 999, "REV_AT_EPOCH": 416, "BSTAR": -0.03365991, "MEAN_MOTION_DOT": -0.01818017, "MEAN_MOTION_DDOT": 0}, "tle": {"line1": "1 66644U 25271AD  25346.25001157 -.01818017  00000+0 -33660-1 0  9990", "line2": "2 66644  53.1597 189.4782 0001095  86.2603 194.3679 15.51870179  4161"}}, "geometry": {"type": "Point", "coordinates": [23.545893642132594, -21.747523771300123]}}, {"type": "Feature", "properties": {"norad_id": 66645, "name": "SHENZHOU-22", "group": "last-30-days", "lat": -25.257572114116734, "lon": -132.25352758818633, "alt_km": 397.854941890334, "timestamp": "2025-12-12T22:42:11.306989+00:00", "meta": {"OBJECT_NAME": "SHENZHOU-22", "OBJECT_ID": "2025-272A", "EPOCH": "2025-12-12T03:18:59.276448", "MEAN_MOTION": 15.59138453, "ECCENTRICITY": 0.0008469, "INCLINATION": 41.4684, "RA_OF_ASC_NODE": 20.3596, "ARG_OF_PERICENTER": 25.2431, "MEAN_ANOMALY": 334.882, "EPHEMERIS_TYPE": 0, "CLASSIFICATION_TYPE": "U", "NORAD_CAT_ID": 66645, "ELEMENT_SET_NO": 999, "REV_AT_EPOCH": 26357, "BSTAR": 0.00037752271, "MEAN_MOTION_DOT": 0.00030211, "MEAN_MOTION_DDOT": 0}, "tle": {"line1": "1 66645U 25272A   25346.13818607  .00030211  00000+0  37752-3 0  9992", "line2": "2 66645  41.4684  20.3596 0008469  25.2431 334.8820 15.59138453263570"}}, "geometry": {"type": "Point", "coordinates": [-132.25352758818633, -25.257572114116734]}}, {"type": "Feature", "properties": {"norad_id": 66647, "name": "COSMOS 2597 (RODNIK-S 22)", "group": "last-30-days", "lat": -48.95312101974892, "lon": -82.38158679768382, "alt_km": 1499.3139570631502, "timestamp": "2025-12-12T22:42:11.307030+00:00", "meta": {"OBJECT_NAME": "COSMOS 2597 (RODNIK-S 22)", "OBJECT_ID": "2025-273A", "EPOCH": "2025-12-12T05:34:06.807936", "MEAN_MOTION": 12.41951335, "ECCENTRICITY": 0.00079, "INCLINATION": 82.4987, "RA_OF_ASC_NODE": 286.7642, "ARG_OF_PERICENTER": 290.3875, "MEAN_ANOMALY": 69.6356, "EPHEMERIS_TYPE": 0, "CLASSIFICATION_TYPE": "U", "NORAD_CAT_ID": 66647, "ELEMENT_SET_NO": 999, "REV_AT_EPOCH": 207, "BSTAR": 0.00015314188, "MEAN_MOTION_DOT": 3.1e-07, "MEAN_MOTION_DDOT": 0}, "tle": {"line1": "1 66647U 25273A   25346.23202324  .00000031  00000+0  15314-3 0  9996", "line2": "2 66647  82.4987 286.7642 0007900 290.3875  69.6356 12.41951335  2072"}}, "geometry": {"type": "Point", "coordinates": [-82.38158679768382, -48.95312101974892]}}, {"type": "Feature", "properties": {"norad_id": 66648, "name": "COSMOS 2598 (RODNIK-S 23)", "group": "last-30-days", "lat": -12.727938959205403, "lon": -75.38304035802703, "alt_km": 1499.338757532093, "timestamp": "2025-12-12T22:42:11.307044+00:00", "meta": {"OBJECT_NAME": "COSMOS 2598 (RODNIK-S 23)", "OBJECT_ID": "2025-273B", "EPOCH": "2025-12-12T05:23:22.351200", "MEAN_MOTION": 12.43233288, "ECCENTRICITY": 0.0007984, "INCLINATION": 82.5021, "RA_OF_ASC_NODE": 286.7701, "ARG_OF_PERICENTER": 238.3191, "MEAN_ANOMALY": 121.7111, "EPHEMERIS_TYPE": 0, "CLASSIFICATION_TYPE": "U", "NORAD_CAT_ID": 66648, "ELEMENT_SET_NO": 999, "REV_AT_EPOCH": 207, "BSTAR": -4.7631301e-05, "MEAN_MOTION_DOT": 3e-08, "MEAN_MOTION_DDOT": 0}, "tle": {"line1": "1 66648U 25273B   25346.22456425  .00000003  00000+0 -47631-4 0  9997", "line2": "2 66648  82.5021 286.7701 0007984 238.3191 121.7111 12.43233288  2075"}}, "geometry": {"type": "Point", "coordinates": [-75.38304035802703, -12.727938959205403]}}]}